[{"OBJECT_NAME":"YUNHAI-2 01A","OBJECT_ID":"2018-112A","EPOCH":"2026-03-09T22:34:33.618432","MEAN_MOTION":14.28975171,"ECCENTRICITY":4.652e-5,"INCLINATION":50.0087,"RA_OF_ASC_NODE":105.4873,"ARG_OF_PERICENTER":228.8508,"MEAN_ANOMALY":131.2367,"EPHEMERIS_TYPE":0,"CLASSIFICATION_TYPE":"U","NORAD_CAT_ID":43909,"ELEMENT_SET_NO":999,"REV_AT_EPOCH":37689,"BSTAR":7.7064636e-5,"MEAN_MOTION_DOT":3.5e-7,"MEAN_MOTION_DDOT":0},{"OBJECT_NAME":"REX 2","OBJECT_ID":"1996-014A","EPOCH":"2026-03-09T17:02:11.676768","MEAN_MOTION":14.25335988,"ECCENTRICITY":0.00241713,"INCLINATION":90.0185,"RA_OF_ASC_NODE":341.1032,"ARG_OF_PERICENTER":106.1197,"MEAN_ANOMALY":254.266,"EPHEMERIS_TYPE":0,"CLASSIFICATION_TYPE":"U","NORAD_CAT_ID":23814,"ELEMENT_SET_NO":999,"REV_AT_EPOCH":55902,"BSTAR":8.6874543e-5,"MEAN_MOTION_DOT":2.17e-6,"MEAN_MOTION_DDOT":0}]
